[
    {
        "CCSDS_OMM_VERS": "3.0",
        "COMMENT": "GENERATED VIA SPACE-TRACK.ORG API",
        "CREATION_DATE": "2025-07-31T14:36:18",
        "ORIGINATOR": "18 SPCS",
        "OBJECT_NAME": "STARLINK-34544",
        "OBJECT_ID": "2025-152Z",
        "CENTER_NAME": "EARTH",
        "REF_FRAME": "TEME",
        "TIME_SYSTEM": "UTC",
        "MEAN_ELEMENT_THEORY": "SGP4",
        "EPOCH": "2025-07-31T12:00:00.999648",
        "MEAN_MOTION": "15.78422964",
        "ECCENTRICITY": "0.00016230",
        "INCLINATION": "97.5955",
        "RA_OF_ASC_NODE": "64.9121",
        "ARG_OF_PERICENTER": "65.6720",
        "MEAN_ANOMALY": "173.0001",
        "EPHEMERIS_TYPE": "0",
        "CLASSIFICATION_TYPE": "U",
        "NORAD_CAT_ID": "64865",
        "ELEMENT_SET_NO": "999",
        "REV_AT_EPOCH": "196",
        "BSTAR": "-0.00612720000000",
        "MEAN_MOTION_DOT": "-0.00945231",
        "MEAN_MOTION_DDOT": "0.0000000000000",
        "SEMIMAJOR_AXIS": "6713.045",
        "PERIOD": "91.230",
        "APOAPSIS": "336.000",
        "PERIAPSIS": "333.821",
        "OBJECT_TYPE": "PAYLOAD",
        "RCS_SIZE": "LARGE",
        "COUNTRY_CODE": "US",
        "LAUNCH_DATE": "2025-07-19",
        "SITE": "AFWTR",
        "DECAY_DATE": null,
        "FILE": "4801448",
        "GP_ID": "293942550",
        "TLE_LINE0": "0 STARLINK-34544",
        "TLE_LINE1": "1 64865U 25152Z   25212.50001157 -.00945231  00000-0 -61272-2 0  9991",
        "TLE_LINE2": "2 64865  97.5955  64.9121 0001623  65.6720 173.0001 15.78422964  1968"
    }
]